0 FENGYUN 1C DEB
1 35160U 99025DMQ 13281.24161709  .00000928  00000-0  31865-3 0  2454
2 35160 099.2151 069.9663 0193644 151.6467 209.5432 14.28701221319073
0 FENGYUN 1C DEB
1 35160U 99025DMQ 13285.23354742  .00000974  00000-0  33397-3 0  2462
2 35160 099.2129 074.1839 0193253 139.9707 221.5985 14.28710506319649
0 FENGYUN 1C DEB
1 35160U 99025DMQ 13287.26450948  .00001003  00000-0  34326-3 0  2470
2 35160 099.2120 076.3275 0193346 134.1833 227.5417 14.28715652319933
0 FENGYUN 1C DEB
1 35160U 99025DMQ 13289.22543457  .00001015  00000-0  34582-3 0  2484
2 35160 099.2131 078.3989 0194836 128.9570 232.9390 14.28720080320217
0 FENGYUN 1C DEB
1 35160U 99025DMQ 13290.20588909  .00001034  00000-0  35142-3 0  2490
2 35160 099.2154 079.4393 0195762 126.2984 235.6711 14.28722820320358
0 FENGYUN 1C DEB
1 35160U 99025DMQ 13292.23682141  .00001075  00000-0  36461-3 0  2500
2 35160 099.2153 081.5831 0195613 120.6149 241.4586 14.28728556320643
0 FENGYUN 1C DEB
1 35160U 99025DMQ 13295.17816007  .00001115  00000-0  37845-3 0  2519
2 35160 099.2142 084.6867 0194220 112.0994 250.1218 14.28736765321067
